{"type": "FeatureCollection", "features": [ {"type": "Feature", "properties": {"norad_id": 66879, "name": "STARLINK-35749", "group": "last-30-days", "lat": 36.20752410135985, "lon": 165.30483023180125, "alt_km": 359.1750528598004, "timestamp": "2025-12-23T18:59:30.758808+00:00", "meta": {"OBJECT_NAME": "STARLINK-35749", "OBJECT_ID": "2025-283B", "EPOCH": "2025-12-23T06:00:00.999648", "MEAN_MOTION": 15.70409343, "ECCENTRICITY": 0.00010495, "INCLINATION": 53.159, "RA_OF_ASC_NODE": 21.263, "ARG_OF_PERICENTER": 89.4817, "MEAN_ANOMALY": 223.0591, "EPHEMERIS_TYPE": 0, "CLASSIFICATION_TYPE": "U", "NORAD_CAT_ID": 66879, "ELEMENT_SET_NO": 999, "REV_AT_EPOCH": 411, "BSTAR": -0.018007171, "MEAN_MOTION_DOT": -0.01983501, "MEAN_MOTION_DDOT": 0}, "tle": {"line1": "1 66879U 25283B   25357.25001157 -.01983501  00000+0 -18007-1 0  9994", "line2": "2 66879  53.1590  21.2630 0001049  89.4817 223.0591 15.70409343  4110"}}, "geometry": {"type": "Point", "coordinates": [165.30483023180125, 36.20752410135985]}}, {"type": "Feature", "properties": {"norad_id": 66880, "name": "STARLINK-35844", "group": "last-30-days", "lat": 37.47684026499115, "lon": 163.51280283946303, "alt_km": 358.879421525462, "timestamp": "2025-12-23T18:59:30.758818+00:00", "meta": {"OBJECT_NAME": "STARLINK-35844", "OBJECT_ID": "2025-283C", "EPOCH": "2025-12-23T06:00:00.999648", "MEAN_MOTION": 15.70410077, "ECCENTRICITY": 0.00011237, "INCLINATION": 53.1592, "RA_OF_ASC_NODE": 21.2673, "ARG_OF_PERICENTER": 94.6038, "MEAN_ANOMALY": 216.0184, "EPHEMERIS_TYPE": 0, "CLASSIFICATION_TYPE": "U", "NORAD_CAT_ID": 66880, "ELEMENT_SET_NO": 999, "REV_AT_EPOCH": 411, "BSTAR": -0.017986957, "MEAN_MOTION_DOT": -0.01981649, "MEAN_MOTION_DDOT": 0}, "tle": {"line1": "1 66880U 25283C   25357.25001157 -.01981649  00000+0 -17987-1 0  9993", "line2": "2 66880  53.1592  21.2673 0001123  94.6038 216.0184 15.70410077  4113"}}, "geometry": {"type": "Point", "coordinates": [163.51280283946303, 37.47684026499115]}}, {"type": "Feature", "properties": {"norad_id": 66881, "name": "STARLINK-35860", "group": "last-30-days", "lat": 34.91072499567297, "lon": 167.04101456196986, "alt_km": 359.41628643739296, "timestamp": "2025-12-23T18:59:30.758828+00:00", "meta": {"OBJECT_NAME": "STARLINK-35860", "OBJECT_ID": "2025-283D", "EPOCH": "2025-12-23T06:00:00.999648", "MEAN_MOTION": 15.70408171, "ECCENTRICITY": 0.00010419, "INCLINATION": 53.1588, "RA_OF_ASC_NODE": 21.2588, "ARG_OF_PERICENTER": 85.4444, "MEAN_ANOMALY": 229.0127, "EPHEMERIS_TYPE": 0, "CLASSIFICATION_TYPE": "U", "NORAD_CAT_ID": 66881, "ELEMENT_SET_NO": 999, "REV_AT_EPOCH": 411, "BSTAR": -0.017985314, "MEAN_MOTION_DOT": -0.01981286, "MEAN_MOTION_DDOT": 0}, "tle": {"line1": "1 66881U 25283D   25357.25001157 -.01981286  00000+0 -17985-1 0  9999", "line2": "2 66881  53.1588  21.2588 0001041  85.4444 229.0127 15.70408171  4115"}}, "geometry": {"type": "Point", "coordinates": [167.04101456196986, 34.91072499567297]}}, {"type": "Feature", "properties": {"norad_id": 66882, "name": "STARLINK-35912", "group": "last-30-days", "lat": 33.58929246030081, "lon": 168.72463580615445, "alt_km": 359.57624640155973, "timestamp": "2025-12-23T18:59:30.758838+00:00", "meta": {"OBJECT_NAME": "STARLINK-35912", "OBJECT_ID": "2025-283E", "EPOCH": "2025-12-23T06:00:00.999648", "MEAN_MOTION": 15.70413307, "ECCENTRICITY": 0.00011711, "INCLINATION": 53.159, "RA_OF_ASC_NODE": 21.2554, "ARG_OF_PERICENTER": 86.2318, "MEAN_ANOMALY": 230.1372, "EPHEMERIS_TYPE": 0, "CLASSIFICATION_TYPE": "U", "NORAD_CAT_ID": 66882, "ELEMENT_SET_NO": 999, "REV_AT_EPOCH": 411, "BSTAR": -0.01801789, "MEAN_MOTION_DOT": -0.0198493, "MEAN_MOTION_DDOT": 0}, "tle": {"line1": "1 66882U 25283E   25357.25001157 -.01984930  00000+0 -18018-1 0  9997", "line2": "2 66882  53.1590  21.2554 0001171  86.2318 230.1372 15.70413307  4117"}}, "geometry": {"type": "Point", "coordinates": [168.72463580615445, 33.58929246030081]}}, {"type": "Feature", "properties": {"norad_id": 66883, "name": "STARLINK-35947", "group": "last-30-days", "lat": 32.246841755368955, "lon": 170.3554139371709, "alt_km": 359.84342311161527, "timestamp": "2025-12-23T18:59:30.758848+00:00", "meta": {"OBJECT_NAME": "STARLINK-35947", "OBJECT_ID": "2025-283F", "EPOCH": "2025-12-23T06:00:00.999648", "MEAN_MOTION": 15.70408854, "ECCENTRICITY": 0.00010727, "INCLINATION": 53.1591, "RA_OF_ASC_NODE": 21.252, "ARG_OF_PERICENTER": 90.2612, "MEAN_ANOMALY": 228.0294, "EPHEMERIS_TYPE": 0, "CLASSIFICATION_TYPE": "U", "NORAD_CAT_ID": 66883, "ELEMENT_SET_NO": 999, "REV_AT_EPOCH": 416, "BSTAR": -0.017980954, "MEAN_MOTION_DOT": -0.01980936, "MEAN_MOTION_DDOT": 0}, "tle": {"line1": "1 66883U 25283F   25357.25001157 -.01980936  00000+0 -17981-1 0  9998", "line2": "2 66883  53.1591  21.2520 0001072  90.2612 228.0294 15.70408854  4169"}}, "geometry": {"type": "Point", "coordinates": [170.3554139371709, 32.246841755368955]}}, {"type": "Feature", "properties": {"norad_id": 66884, "name": "STARLINK-36057", "group": "last-30-days", "lat": 29.501687663271838, "lon": 173.47394909419663, "alt_km": 360.302546932915, "timestamp": "2025-12-23T18:59:30.758858+00:00", "meta": {"OBJECT_NAME": "STARLINK-36057", "OBJECT_ID": "2025-283G", "EPOCH": "2025-12-23T06:00:00.999648", "MEAN_MOTION": 15.7040999, "ECCENTRICITY": 0.00010816, "INCLINATION": 53.1588, "RA_OF_ASC_NODE": 21.2428, "ARG_OF_PERICENTER": 94.2941, "MEAN_ANOMALY": 227.8291, "EPHEMERIS_TYPE": 0, "CLASSIFICATION_TYPE": "U", "NORAD_CAT_ID": 66884, "ELEMENT_SET_NO": 999, "REV_AT_EPOCH": 411, "BSTAR": -0.017984236, "MEAN_MOTION_DOT": -0.01981346, "MEAN_MOTION_DDOT": 0}, "tle": {"line1": "1 66884U 25283G   25357.25001157 -.01981346  00000+0 -17984-1 0  9998", "line2": "2 66884  53.1588  21.2428 0001081  94.2941 227.8291 15.70409990  4113"}}, "geometry": {"type": "Point", "coordinates": [173.47394909419663, 29.501687663271838]}}, {"type": "Feature", "properties": {"norad_id": 66885, "name": "STARLINK-35954", "group": "last-30-days", "lat": 30.88351480891372, "lon": 171.93681771357237, "alt_km": 360.03777475284187, "timestamp": "2025-12-23T18:59:30.758867+00:00", "meta": {"OBJECT_NAME": "STARLINK-35954", "OBJECT_ID": "2025-283H", "EPOCH": "2025-12-23T06:00:00.999648", "MEAN_MOTION": 15.70410427, "ECCENTRICITY": 9.755e-05, "INCLINATION": 53.1591, "RA_OF_ASC_NODE": 21.2468, "ARG_OF_PERICENTER": 82.9961, "MEAN_ANOMALY": 237.2109, "EPHEMERIS_TYPE": 0, "CLASSIFICATION_TYPE": "U", "NORAD_CAT_ID": 66885, "ELEMENT_SET_NO": 999, "REV_AT_EPOCH": 411, "BSTAR": -0.017982985, "MEAN_MOTION_DOT": -0.01981176, "MEAN_MOTION_DDOT": 0}, "tle": {"line1": "1 66885U 25283H   25357.25001157 -.01981176  00000+0 -17983-1 0  9999", "line2": "2 66885  53.1591  21.2468 0000975  82.9961 237.2109 15.70410427  4119"}}, "geometry": {"type": "Point", "coordinates": [171.93681771357237, 30.88351480891372]}}, {"type": "Feature", "properties": {"norad_id": 66886, "name": "STARLINK-35900", "group": "last-30-days", "lat": 28.10070712247978, "lon": 174.97187777812542, "alt_km": 360.26383258132137, "timestamp": "2025-12-23T18:59:30.758876+00:00", "meta": {"OBJECT_NAME": "STARLINK-35900", "OBJECT_ID": "2025-283J", "EPOCH": "2025-12-23T06:00:00.999648", "MEAN_MOTION": 15.70341682, "ECCENTRICITY": 0.00012563, "INCLINATION": 53.1592, "RA_OF_ASC_NODE": 21.2386, "ARG_OF_PERICENTER": 115.706, "MEAN_ANOMALY": 208.3861, "EPHEMERIS_TYPE": 0, "CLASSIFICATION_TYPE": "U", "NORAD_CAT_ID": 66886, "ELEMENT_SET_NO": 999, "REV_AT_EPOCH": 411, "BSTAR": -0.017338855, "MEAN_MOTION_DOT": -0.01913579, "MEAN_MOTION_DDOT": 0}, "tle": {"line1": "1 66886U 25283J   25357.25001157 -.01913579  00000+0 -17339-1 0  9997", "line2": "2 66886  53.1592  21.2386 0001256 115.7060 208.3861 15.70341682  4118"}}, "geometry": {"type": "Point", "coordinates": [174.97187777812542, 28.10070712247978]}}, {"type": "Feature", "properties": {"norad_id": 66887, "name": "STARLINK-35925", "group": "last-30-days", "lat": 26.688331922374946, "lon": 176.42620231384996, "alt_km": 360.84901475925744, "timestamp": "2025-12-23T18:59:30.758885+00:00", "meta": {"OBJECT_NAME": "STARLINK-35925", "OBJECT_ID": "2025-283K", "EPOCH": "2025-12-23T06:00:00.999648", "MEAN_MOTION": 15.70408419, "ECCENTRICITY": 0.00010504, "INCLINATION": 53.1592, "RA_OF_ASC_NODE": 21.2349, "ARG_OF_PERICENTER": 87.1056, "MEAN_ANOMALY": 238.8528, "EPHEMERIS_TYPE": 0, "CLASSIFICATION_TYPE": "U", "NORAD_CAT_ID": 66887, "ELEMENT_SET_NO": 999, "REV_AT_EPOCH": 411, "BSTAR": -0.017975605, "MEAN_MOTION_DOT": -0.01980367, "MEAN_MOTION_DDOT": 0}, "tle": {"line1": "1 66887U 25283K   25357.25001157 -.01980367  00000+0 -17976-1 0  9994", "line2": "2 66887  53.1592  21.2349 0001050  87.1056 238.8528 15.70408419  4117"}}, "geometry": {"type": "Point", "coordinates": [176.42620231384996, 26.688331922374946]}}, {"type": "Feature", "properties": {"norad_id": 66888, "name": "STARLINK-35919", "group": "last-30-days", "lat": 25.25926576014618, "lon": 177.84663618141136, "alt_km": 361.1162141166851, "timestamp": "2025-12-23T18:59:30.758896+00:00", "meta": {"OBJECT_NAME": "STARLINK-35919", "OBJECT_ID": "2025-283L", "EPOCH": "2025-12-23T06:00:00.999648", "MEAN_MOTION": 15.70406902, "ECCENTRICITY": 0.00010574, "INCLINATION": 53.1593, "RA_OF_ASC_NODE": 21.2309, "ARG_OF_PERICENTER": 82.2574, "MEAN_ANOMALY": 245.6173, "EPHEMERIS_TYPE": 0, "CLASSIFICATION_TYPE": "U", "NORAD_CAT_ID": 66888, "ELEMENT_SET_NO": 999, "REV_AT_EPOCH": 411, "BSTAR": -0.017953037, "MEAN_MOTION_DOT": -0.01978067, "MEAN_MOTION_DDOT": 0}, "tle": {"line1": "1 66888U 25283L   25357.25001157 -.01978067  00000+0 -17953-1 0  9994", "line2": "2 66888  53.1593  21.2309 0001057  82.2574 245.6173 15.70406902  4110"}}, "geometry": {"type": "Point", "coordinates": [177.84663618141136, 25.25926576014618]}}]}